{
"type": "FeatureCollection",
"name": "tracks",
"features": [
{ "type": "Feature", "properties": { "name": "Under the I-77 tunnel (via N Meck Park)", "desc": "Almost all greenway or sidewalks. Water 2 places in Huntersville", "link1_href": "https://www.strava.com/routes/3516879351997891832", "type": "cycling" }, "geometry": { "type": "LineString", "coordinates": [ [ -80.82765, 35.49091 ], [ -80.827455, 35.49012 ], [ -80.82726, 35.48933 ], [ -80.82728, 35.48922 ], [ -80.82732, 35.48913 ], [ -80.82749, 35.48889 ], [ -80.82786, 35.48848 ], [ -80.82812, 35.488 ], [ -80.82813, 35.48782 ], [ -80.82813, 35.48733 ], [ -80.82817, 35.48713 ], [ -80.82833, 35.486685 ], [ -80.82849, 35.48624 ], [ -80.82863, 35.48588 ], [ -80.8288, 35.48537 ], [ -80.82897, 35.48486 ], [ -80.82911, 35.48488 ], [ -80.82934, 35.48489 ], [ -80.82946, 35.48487 ], [ -80.82952, 35.48484 ], [ -80.82974, 35.48467 ], [ -80.82976, 35.48455 ], [ -80.82944, 35.48445 ], [ -80.82935, 35.48378 ], [ -80.82934, 35.48319 ], [ -80.82916, 35.48287 ], [ -80.82915, 35.48273 ], [ -80.82921, 35.48226 ], [ -80.82918, 35.4821 ], [ -80.82911, 35.48184 ], [ -80.82881, 35.48119 ], [ -80.82857, 35.48074 ], [ -80.82848, 35.48054 ], [ -80.82822, 35.48024 ], [ -80.82812, 35.48022 ], [ -80.82799, 35.48017 ], [ -80.82786, 35.48005 ], [ -80.82777, 35.47993 ], [ -80.8276, 35.47957 ], [ -80.82758, 35.47933 ], [ -80.82746, 35.479 ], [ -80.82737, 35.47842 ], [ -80.82732, 35.47831 ], [ -80.82728, 35.47826 ], [ -80.82647, 35.47806 ], [ -80.8262, 35.47787 ], [ -80.82576, 35.47741 ], [ -80.82546, 35.47716 ], [ -80.82482, 35.47654 ], [ -80.8246, 35.47629 ], [ -80.82436, 35.47608 ], [ -80.82367, 35.47563 ], [ -80.82356, 35.47538 ], [ -80.82347, 35.47526 ], [ -80.82325, 35.47506 ], [ -80.82303, 35.47492 ], [ -80.82289, 35.47471 ], [ -80.82244, 35.47433 ], [ -80.82222, 35.47419 ], [ -80.82213, 35.47408 ], [ -80.82208, 35.47396 ], [ -80.82198, 35.47389 ], [ -80.82208, 35.47381 ], [ -80.82219, 35.47367 ], [ -80.822475, 35.473265 ], [ -80.82276, 35.47286 ], [ -80.8228, 35.47268 ], [ -80.82276, 35.47258 ], [ -80.82271, 35.47253 ], [ -80.82244, 35.47238 ], [ -80.82235, 35.47232 ], [ -80.82231, 35.47226 ], [ -80.82227, 35.47213 ], [ -80.82231, 35.47202 ], [ -80.82262, 35.47166 ], [ -80.82285, 35.47123 ], [ -80.82285, 35.4711 ], [ -80.82267, 35.47095 ], [ -80.82262, 35.47041 ], [ -80.82261, 35.46987 ], [ -80.8227, 35.4697 ], [ -80.82307, 35.46919 ], [ -80.82365, 35.4685 ], [ -80.82382, 35.46836 ], [ -80.82405, 35.46821 ], [ -80.82432, 35.46786 ], [ -80.82441, 35.4678 ], [ -80.82455, 35.46778 ], [ -80.82509, 35.46805 ], [ -80.82518, 35.46804 ], [ -80.82535, 35.46783 ], [ -80.82556, 35.46795 ], [ -80.82559, 35.46795 ], [ -80.82565, 35.4678 ], [ -80.82576, 35.46786 ], [ -80.82607, 35.46755 ], [ -80.8262, 35.46747 ], [ -80.82639, 35.46739 ], [ -80.82631, 35.46725 ], [ -80.82647, 35.46721 ], [ -80.8267, 35.46717 ], [ -80.82663, 35.46669 ], [ -80.82773, 35.46669 ], [ -80.82795, 35.46673 ], [ -80.82857, 35.467065 ], [ -80.82919, 35.4674 ], [ -80.82926, 35.46743 ], [ -80.82933, 35.46743 ], [ -80.82938, 35.46754 ], [ -80.82943, 35.46756 ], [ -80.82971, 35.4675 ], [ -80.8304333, 35.4672733 ], [ -80.8311567, 35.4670467 ], [ -80.83188, 35.46682 ], [ -80.83211, 35.46679 ], [ -80.83228, 35.46681 ], [ -80.83323, 35.46712 ], [ -80.83337, 35.46714 ], [ -80.83381, 35.46712 ], [ -80.833895, 35.46769 ], [ -80.83398, 35.46826 ], [ -80.83401, 35.46871 ], [ -80.83404, 35.46916 ], [ -80.8342, 35.46915 ], [ -80.8341067, 35.4684467 ], [ -80.8340133, 35.4677433 ], [ -80.83392, 35.46704 ], [ -80.8338, 35.46705 ], [ -80.83389, 35.467655 ], [ -80.83398, 35.46826 ], [ -80.83401, 35.46871 ], [ -80.83404, 35.46916 ], [ -80.8343, 35.46914 ], [ -80.83435, 35.46912 ], [ -80.834955, 35.46907 ], [ -80.83556, 35.46902 ], [ -80.83659, 35.46879 ], [ -80.8372, 35.46857 ], [ -80.83781, 35.46835 ], [ -80.83796, 35.46827 ], [ -80.838525, 35.468065 ], [ -80.83909, 35.46786 ], [ -80.8398867, 35.4676067 ], [ -80.8406833, 35.4673533 ], [ -80.84148, 35.4671 ], [ -80.84173, 35.46699 ], [ -80.84182, 35.46692 ], [ -80.842335, 35.466715 ], [ -80.84285, 35.46651 ], [ -80.8429, 35.46645 ], [ -80.84301, 35.46645 ], [ -80.843, 35.46633 ], [ -80.84304, 35.46618 ], [ -80.84317, 35.46597 ], [ -80.84321, 35.46584 ], [ -80.843235, 35.465215 ], [ -80.84326, 35.46459 ], [ -80.84331, 35.46449 ], [ -80.84335, 35.46442 ], [ -80.84348, 35.46434 ], [ -80.84402, 35.46415 ], [ -80.84456, 35.46396 ], [ -80.84464, 35.46392 ], [ -80.84463, 35.46388 ], [ -80.84468, 35.46389 ], [ -80.8448, 35.46376 ], [ -80.8447, 35.46374 ], [ -80.84455, 35.46362 ], [ -80.84429, 35.46307 ], [ -80.84424, 35.4629 ], [ -80.84425, 35.46284 ], [ -80.84443, 35.46267 ], [ -80.84447, 35.4626 ], [ -80.84455, 35.46234 ], [ -80.8446, 35.46232 ], [ -80.84465, 35.46232 ], [ -80.8447, 35.46235 ], [ -80.84473, 35.46247 ], [ -80.84514, 35.46257 ], [ -80.84528, 35.46263 ], [ -80.84531, 35.46255 ], [ -80.84528, 35.46248 ], [ -80.844856, 35.461822 ], [ -80.844432, 35.461164 ], [ -80.844008, 35.460506 ], [ -80.843584, 35.459848 ], [ -80.84316, 35.45919 ], [ -80.84345, 35.45909 ], [ -80.84384, 35.45973 ], [ -80.844, 35.45967 ], [ -80.8442, 35.45958 ], [ -80.84459, 35.4592 ], [ -80.84465, 35.45913 ], [ -80.84474, 35.45898 ], [ -80.84474, 35.45889 ], [ -80.84483, 35.45843 ], [ -80.84473, 35.45831 ], [ -80.8448, 35.45822 ], [ -80.84498, 35.45827 ], [ -80.84577, 35.45837 ], [ -80.84589, 35.45835 ], [ -80.84629, 35.45816 ], [ -80.84662, 35.45805 ], [ -80.8468, 35.45793 ], [ -80.84693, 35.4578 ], [ -80.8472, 35.45746 ], [ -80.8473, 35.45737 ], [ -80.84748, 35.45734 ], [ -80.84786, 35.45735 ], [ -80.84792, 35.45734 ], [ -80.84819, 35.45723 ], [ -80.8485, 35.45724 ], [ -80.84859, 35.45722 ], [ -80.84877, 35.45709 ], [ -80.84913, 35.4566 ], [ -80.84926, 35.45653 ], [ -80.84993, 35.45629 ], [ -80.85007, 35.45622 ], [ -80.85011, 35.45612 ], [ -80.85012, 35.45591 ], [ -80.85016, 35.45581 ], [ -80.85025, 35.45572 ], [ -80.850785, 35.455495 ], [ -80.85132, 35.45527 ], [ -80.85149, 35.45523 ], [ -80.85177, 35.45519 ], [ -80.85209, 35.45521 ], [ -80.85239, 35.45516 ], [ -80.85274, 35.45499 ], [ -80.85307, 35.45491 ], [ -80.85339, 35.4549 ], [ -80.8536, 35.4548 ], [ -80.85386, 35.45481 ], [ -80.85392, 35.45479 ], [ -80.85409, 35.45468 ], [ -80.85442, 35.45462 ], [ -80.85477, 35.45447 ], [ -80.85527, 35.45448 ], [ -80.85544, 35.45445 ], [ -80.85558, 35.45439 ], [ -80.85611, 35.45408 ], [ -80.85683, 35.45361 ], [ -80.85692, 35.45358 ], [ -80.85719, 35.45355 ], [ -80.85732, 35.45351 ], [ -80.85763, 35.45325 ], [ -80.85771, 35.45322 ], [ -80.8578, 35.45321 ], [ -80.85812, 35.45322 ], [ -80.85826, 35.45319 ], [ -80.85835, 35.45312 ], [ -80.85862, 35.4528 ], [ -80.85875, 35.45257 ], [ -80.85897, 35.45237 ], [ -80.8592, 35.45224 ], [ -80.85938, 35.45217 ], [ -80.85983, 35.45215 ], [ -80.86001, 35.45209 ], [ -80.86063, 35.45179 ], [ -80.86112, 35.45148 ], [ -80.86152, 35.45119 ], [ -80.86188, 35.45114 ], [ -80.86198, 35.45108 ], [ -80.8621, 35.45097 ], [ -80.86215, 35.45096 ], [ -80.86229, 35.45098 ], [ -80.86237, 35.45089 ], [ -80.86242, 35.45086 ], [ -80.86307, 35.45073 ], [ -80.86372, 35.4506 ], [ -80.86452, 35.45038 ], [ -80.86489, 35.45026 ], [ -80.86507, 35.45016 ], [ -80.86533, 35.44999 ], [ -80.86547, 35.44982 ], [ -80.865765, 35.449275 ], [ -80.86606, 35.44873 ], [ -80.86613, 35.44859 ], [ -80.86627, 35.44835 ], [ -80.8663, 35.44827 ], [ -80.8663, 35.44828 ], [ -80.86631, 35.44822 ], [ -80.86609, 35.44803 ], [ -80.86609, 35.44793 ], [ -80.86609, 35.4478 ], [ -80.86618, 35.44768 ], [ -80.86645, 35.44742 ], [ -80.86646, 35.44732 ], [ -80.86638, 35.44723 ], [ -80.86639, 35.4471 ], [ -80.86614, 35.44715 ], [ -80.86556, 35.44743 ], [ -80.86498, 35.44771 ], [ -80.86433, 35.448 ], [ -80.8639, 35.44811 ], [ -80.86364, 35.44814 ], [ -80.86326, 35.44815 ], [ -80.86292, 35.44811 ], [ -80.86252, 35.44802 ], [ -80.86177, 35.44784 ], [ -80.86158, 35.44778 ], [ -80.86139, 35.44768 ], [ -80.86104, 35.44743 ], [ -80.86072, 35.44709 ], [ -80.86075, 35.44704 ], [ -80.86074, 35.44691 ], [ -80.86072, 35.44684 ], [ -80.86068, 35.4468 ], [ -80.86059, 35.44677 ], [ -80.8605, 35.44678 ], [ -80.86022, 35.44605 ], [ -80.8602, 35.44593 ], [ -80.86027, 35.44573 ], [ -80.86031, 35.44565 ], [ -80.86063, 35.44534 ], [ -80.86076, 35.44512 ], [ -80.86094, 35.44474 ], [ -80.86099, 35.44433 ], [ -80.86099, 35.44418 ], [ -80.86092, 35.44412 ], [ -80.86004, 35.44377 ], [ -80.85996, 35.44373 ], [ -80.85987, 35.44364 ], [ -80.85983, 35.44353 ], [ -80.85982, 35.4434 ], [ -80.85993, 35.44265 ], [ -80.86001, 35.44176 ], [ -80.85894, 35.44169 ], [ -80.85875, 35.44159 ], [ -80.85867, 35.44149 ], [ -80.85864, 35.44137 ], [ -80.85866, 35.44101 ], [ -80.85853, 35.44056 ], [ -80.85853, 35.44036 ], [ -80.85857, 35.44015 ], [ -80.85885, 35.4397 ], [ -80.85889, 35.43959 ], [ -80.858885, 35.439115 ], [ -80.85888, 35.43864 ], [ -80.85821, 35.43859 ], [ -80.857655, 35.438635 ], [ -80.8571, 35.43868 ], [ -80.856415, 35.43866 ], [ -80.85573, 35.43864 ], [ -80.85576, 35.43801 ], [ -80.85579, 35.43738 ], [ -80.854855, 35.437355 ], [ -80.85392, 35.43733 ], [ -80.85344, 35.43749 ], [ -80.85311, 35.43757 ], [ -80.85262, 35.43761 ], [ -80.85211, 35.43759 ], [ -80.85114, 35.43744 ], [ -80.85096, 35.43743 ], [ -80.85074, 35.43722 ], [ -80.85063, 35.43715 ], [ -80.85039, 35.43701 ], [ -80.85007, 35.43673 ], [ -80.85008, 35.43673 ], [ -80.84997, 35.43683 ], [ -80.84993, 35.43691 ], [ -80.84997, 35.43704 ], [ -80.84993, 35.43714 ], [ -80.84984, 35.4372 ], [ -80.84976, 35.4373 ], [ -80.84983, 35.43746 ], [ -80.84953, 35.43779 ], [ -80.84948, 35.43798 ], [ -80.84939, 35.43808 ], [ -80.84931, 35.43808 ], [ -80.8493, 35.43807 ], [ -80.84918, 35.43815 ], [ -80.84899, 35.43809 ], [ -80.84886, 35.43814 ], [ -80.84862, 35.43839 ], [ -80.84824, 35.43823 ], [ -80.84844, 35.4379 ], [ -80.84849, 35.437405 ], [ -80.84854, 35.43691 ], [ -80.8485, 35.4364 ], [ -80.84881, 35.43588 ], [ -80.84912, 35.43536 ], [ -80.849345, 35.43472 ], [ -80.84957, 35.43408 ], [ -80.8499, 35.43325 ], [ -80.85023, 35.43242 ], [ -80.85044, 35.43207 ], [ -80.84964, 35.43174 ], [ -80.84917, 35.43152 ], [ -80.84895, 35.43147 ], [ -80.84828, 35.43145 ], [ -80.84761, 35.43143 ], [ -80.84751, 35.43141 ], [ -80.84702, 35.43123 ], [ -80.84672, 35.43109 ], [ -80.84667, 35.43105 ], [ -80.84633, 35.43055 ], [ -80.8471, 35.43018 ], [ -80.84762, 35.429745 ], [ -80.84814, 35.42931 ], [ -80.84831, 35.42923 ], [ -80.8485, 35.4292 ], [ -80.8485, 35.4289 ], [ -80.84854, 35.42881 ], [ -80.84863, 35.42865 ], [ -80.84877, 35.42854 ], [ -80.84898, 35.42846 ], [ -80.84908, 35.42844 ], [ -80.84958, 35.4284 ], [ -80.84955, 35.42805 ], [ -80.84952, 35.42762 ], [ -80.84952, 35.42753 ], [ -80.84957, 35.4274 ], [ -80.84968, 35.42729 ], [ -80.84954, 35.42716 ], [ -80.84943, 35.42699 ], [ -80.84935, 35.42655 ], [ -80.849135, 35.426105 ], [ -80.84892, 35.42566 ], [ -80.84868, 35.42574 ], [ -80.8485, 35.42577 ], [ -80.84776, 35.425845 ], [ -80.84702, 35.42592 ], [ -80.84698, 35.42561 ], [ -80.84688, 35.42546 ], [ -80.84675, 35.42464 ], [ -80.84598, 35.424725 ], [ -80.84521, 35.42481 ], [ -80.84522, 35.42481 ], [ -80.8446, 35.42498 ], [ -80.84438, 35.42497 ], [ -80.84421, 35.42492 ], [ -80.8441, 35.42483 ], [ -80.84398, 35.42466 ], [ -80.84392, 35.423975 ], [ -80.84386, 35.42329 ], [ -80.84384, 35.42315 ], [ -80.84389, 35.42293 ], [ -80.84389, 35.42271 ], [ -80.843825, 35.422125 ], [ -80.84376, 35.42154 ], [ -80.84379, 35.42131 ], [ -80.84388, 35.421 ], [ -80.84388, 35.42094 ], [ -80.8438, 35.42076 ], [ -80.84375, 35.42069 ], [ -80.84357, 35.42057 ], [ -80.84352, 35.42049 ], [ -80.8434, 35.41981 ], [ -80.84334, 35.4197 ], [ -80.84323, 35.41965 ], [ -80.84334, 35.4197 ], [ -80.8434, 35.4198 ], [ -80.84334, 35.4197 ], [ -80.84323, 35.41965 ], [ -80.84309, 35.41962 ], [ -80.84266, 35.41964 ], [ -80.84224, 35.41964 ], [ -80.84192, 35.41969 ], [ -80.841935, 35.419235 ], [ -80.84195, 35.41878 ], [ -80.84192, 35.41864 ], [ -80.84195, 35.41854 ], [ -80.84191, 35.41843 ], [ -80.84197, 35.41803 ], [ -80.84209, 35.41788 ], [ -80.84212, 35.41774 ], [ -80.8422, 35.4176 ], [ -80.84228, 35.41734 ], [ -80.84228, 35.41733 ], [ -80.84235, 35.41711 ], [ -80.84308, 35.41726 ], [ -80.84348, 35.41729 ], [ -80.84375, 35.41729 ], [ -80.84474, 35.41719 ], [ -80.84581, 35.41724 ], [ -80.84591, 35.41723 ], [ -80.84622, 35.41717 ], [ -80.84634, 35.41712 ], [ -80.84635, 35.41712 ], [ -80.847, 35.41685 ], [ -80.84726, 35.41673 ], [ -80.84739, 35.41662 ], [ -80.84748, 35.41651 ], [ -80.84752, 35.41645 ], [ -80.84756, 35.41635 ], [ -80.84756, 35.41618 ], [ -80.84734, 35.41567 ], [ -80.84717, 35.41539 ], [ -80.84689, 35.41511 ], [ -80.84667, 35.41489 ], [ -80.84652, 35.41463 ], [ -80.84611, 35.41381 ], [ -80.84605, 35.41384 ], [ -80.84591, 35.41358 ], [ -80.84586, 35.41361 ], [ -80.84576, 35.41371 ], [ -80.84563, 35.41374 ], [ -80.84555, 35.41373 ], [ -80.84541, 35.41368 ], [ -80.84531, 35.41356 ], [ -80.84504, 35.41304 ], [ -80.84514, 35.41326 ], [ -80.84515, 35.41304 ], [ -80.84519, 35.41296 ], [ -80.84515, 35.41304 ], [ -80.84514, 35.41326 ], [ -80.84531, 35.41356 ], [ -80.84541, 35.41368 ], [ -80.84555, 35.41373 ], [ -80.84563, 35.41374 ], [ -80.84576, 35.41371 ], [ -80.84586, 35.41361 ], [ -80.84591, 35.41358 ], [ -80.84605, 35.41384 ], [ -80.84615, 35.4138 ], [ -80.84626, 35.41388 ], [ -80.8464, 35.41392 ], [ -80.84695, 35.4139 ], [ -80.84696, 35.4139 ], [ -80.84739, 35.41389 ], [ -80.84764, 35.41385 ], [ -80.84792, 35.4139 ], [ -80.84823, 35.41388 ], [ -80.84846, 35.41381 ], [ -80.84855, 35.41372 ], [ -80.84858, 35.41364 ], [ -80.8485, 35.4134 ], [ -80.84852, 35.41335 ], [ -80.8491, 35.41286 ], [ -80.84916, 35.41284 ], [ -80.84954, 35.41291 ], [ -80.8496, 35.4129 ], [ -80.84961, 35.4129 ], [ -80.85021, 35.41282 ], [ -80.85038, 35.41271 ], [ -80.85051, 35.41268 ], [ -80.851065, 35.412655 ], [ -80.85162, 35.41263 ], [ -80.85163, 35.41264 ], [ -80.85167, 35.41281 ], [ -80.85219, 35.41274 ], [ -80.85219, 35.41268 ], [ -80.85262, 35.41267 ], [ -80.85284, 35.41268 ], [ -80.85306, 35.41274 ], [ -80.85331, 35.41286 ], [ -80.85358, 35.41299 ], [ -80.85425, 35.41337 ], [ -80.85427, 35.41344 ], [ -80.85442, 35.41363 ], [ -80.85446, 35.41372 ], [ -80.85462, 35.41424 ], [ -80.8546, 35.41429 ], [ -80.85455, 35.41432 ], [ -80.8545, 35.41438 ], [ -80.8545, 35.4144 ], [ -80.85457, 35.41453 ], [ -80.85468, 35.41456 ], [ -80.85471, 35.41455 ], [ -80.85481, 35.4145 ], [ -80.85483, 35.41443 ], [ -80.85535, 35.41432 ], [ -80.85543, 35.41424 ], [ -80.85631, 35.41406 ], [ -80.85734, 35.41386 ], [ -80.8575, 35.41434 ], [ -80.85745, 35.41438 ], [ -80.8575, 35.41449 ], [ -80.85754, 35.41449 ], [ -80.858, 35.41438 ], [ -80.85804, 35.41435 ], [ -80.85808, 35.41424 ], [ -80.85821, 35.41416 ], [ -80.8591, 35.41398 ], [ -80.85938, 35.41394 ], [ -80.8597, 35.41402 ], [ -80.85988, 35.41404 ], [ -80.86076, 35.41402 ], [ -80.86077, 35.41402 ], [ -80.86112, 35.41402 ], [ -80.86184, 35.41391 ], [ -80.86238, 35.41395 ], [ -80.86251, 35.41402 ], [ -80.8626, 35.41404 ], [ -80.86274, 35.41403 ], [ -80.86282, 35.41399 ], [ -80.8629, 35.41388 ], [ -80.86304, 35.41377 ], [ -80.86314, 35.41364 ], [ -80.86331, 35.41333 ], [ -80.86341, 35.41322 ], [ -80.86385, 35.41292 ], [ -80.86385, 35.41291 ], [ -80.86395, 35.41285 ], [ -80.86404, 35.41284 ], [ -80.86444, 35.41286 ], [ -80.86515, 35.41263 ], [ -80.86524, 35.41257 ], [ -80.86556, 35.41229 ], [ -80.86597, 35.41204 ], [ -80.866, 35.41186 ], [ -80.86605, 35.41175 ], [ -80.86623, 35.41158 ], [ -80.86627, 35.41145 ], [ -80.86641, 35.4114 ], [ -80.86691, 35.41135 ], [ -80.86703, 35.41132 ], [ -80.8673, 35.41117 ], [ -80.86735, 35.41113 ], [ -80.86739, 35.41102 ], [ -80.86744, 35.4107 ], [ -80.86748, 35.41065 ], [ -80.86757, 35.41056 ], [ -80.86773, 35.41047 ], [ -80.8678, 35.4104 ], [ -80.86783, 35.41014 ], [ -80.86776, 35.41014 ], [ -80.86776, 35.41011 ], [ -80.86776, 35.41003 ], [ -80.86783, 35.41003 ], [ -80.86785, 35.4098 ], [ -80.86784, 35.40951 ], [ -80.86788, 35.40943 ], [ -80.86798, 35.40927 ], [ -80.8682, 35.40909 ], [ -80.86842, 35.40872 ], [ -80.868895, 35.408105 ], [ -80.86937, 35.40749 ], [ -80.86964, 35.40733 ], [ -80.87044, 35.40702 ], [ -80.87147, 35.40672 ], [ -80.87219, 35.40647 ], [ -80.87268, 35.40634 ], [ -80.87298, 35.40616 ], [ -80.87308, 35.40604 ], [ -80.87318, 35.40583 ], [ -80.87333, 35.40573 ], [ -80.87339, 35.40571 ], [ -80.87353, 35.40573 ], [ -80.87402, 35.40595 ], [ -80.87424, 35.40591 ], [ -80.87438, 35.40592 ], [ -80.87446, 35.4059 ], [ -80.8746, 35.40578 ], [ -80.87456, 35.40565 ], [ -80.87432, 35.40528 ], [ -80.87429, 35.40516 ], [ -80.87429, 35.4051 ], [ -80.87465, 35.40479 ], [ -80.87466, 35.40479 ], [ -80.87479, 35.40467 ], [ -80.87537, 35.4042733 ], [ -80.87595, 35.4038767 ], [ -80.87653, 35.40348 ], [ -80.87658, 35.40312 ], [ -80.87666, 35.40304 ], [ -80.87684, 35.40294 ], [ -80.87733, 35.40278 ], [ -80.87818, 35.40254 ], [ -80.87827, 35.40248 ], [ -80.87839, 35.40227 ], [ -80.87845, 35.40225 ], [ -80.87861, 35.40182 ], [ -80.87867, 35.40167 ], [ -80.87874, 35.40157 ], [ -80.87886, 35.40164 ], [ -80.87896, 35.40168 ], [ -80.87935, 35.40197 ], [ -80.88005, 35.40217 ], [ -80.88022, 35.40237 ], [ -80.88042, 35.4025 ], [ -80.88056, 35.40257 ], [ -80.88105, 35.40264 ], [ -80.88123, 35.40271 ], [ -80.88186, 35.40314 ], [ -80.88212, 35.40324 ], [ -80.88274, 35.4034 ], [ -80.88309, 35.40356 ], [ -80.88347, 35.40369 ], [ -80.88361, 35.40372 ], [ -80.88383, 35.40368 ], [ -80.88419, 35.40357 ], [ -80.88436, 35.40356 ], [ -80.88463, 35.40361 ], [ -80.88498, 35.40378 ], [ -80.88548, 35.40385 ], [ -80.88589, 35.40421 ], [ -80.88633, 35.40439 ], [ -80.88678, 35.404665 ], [ -80.88723, 35.40494 ], [ -80.88732, 35.40497 ], [ -80.88781, 35.40502 ], [ -80.88826, 35.40502 ], [ -80.88861, 35.40485 ], [ -80.8887, 35.40483 ], [ -80.88884, 35.40484 ], [ -80.88924, 35.405 ], [ -80.88937, 35.40503 ], [ -80.89013, 35.40504 ], [ -80.89049, 35.40511 ], [ -80.89098, 35.40513 ], [ -80.89119, 35.40515 ], [ -80.89118, 35.40566 ], [ -80.89139, 35.40567 ], [ -80.89144, 35.40569 ], [ -80.89179, 35.40602 ], [ -80.89203, 35.40643 ], [ -80.89211, 35.40669 ], [ -80.89206, 35.40679 ], [ -80.89197, 35.40681 ], [ -80.8917, 35.40681 ], [ -80.89135, 35.40685 ], [ -80.89126, 35.40689 ], [ -80.89093, 35.40708 ], [ -80.89058, 35.4074 ], [ -80.89019, 35.40768 ], [ -80.88991, 35.40782 ], [ -80.88973, 35.40797 ], [ -80.889285, 35.40842 ], [ -80.88884, 35.40887 ], [ -80.88861, 35.40911 ], [ -80.88848, 35.40932 ], [ -80.88831, 35.40969 ], [ -80.8883, 35.40977 ], [ -80.8883, 35.40976 ], [ -80.88812, 35.41062 ], [ -80.88794, 35.41148 ], [ -80.88785, 35.41162 ], [ -80.88785, 35.41181 ], [ -80.88764, 35.412595 ], [ -80.88743, 35.41338 ], [ -80.8872867, 35.4139967 ], [ -80.8871433, 35.4146133 ], [ -80.887, 35.41523 ], [ -80.88696, 35.41578 ], [ -80.88674, 35.41636 ], [ -80.88662, 35.4169 ], [ -80.8865, 35.41744 ], [ -80.88638, 35.41783 ], [ -80.88637, 35.41831 ], [ -80.88629, 35.41883 ], [ -80.88633, 35.41926 ], [ -80.88646, 35.41974 ], [ -80.8866, 35.42008 ], [ -80.88687, 35.42056 ], [ -80.887, 35.42076 ], [ -80.88749, 35.42143 ], [ -80.88767, 35.42155 ], [ -80.88776, 35.42158 ], [ -80.88794, 35.42159 ], [ -80.88776, 35.42158 ], [ -80.88767, 35.42155 ], [ -80.88749, 35.42143 ], [ -80.887, 35.42076 ], [ -80.88687, 35.42056 ], [ -80.8866, 35.42008 ], [ -80.88646, 35.41974 ], [ -80.88633, 35.41926 ], [ -80.88629, 35.41883 ], [ -80.88637, 35.41831 ], [ -80.88638, 35.41783 ], [ -80.8865, 35.41744 ], [ -80.88662, 35.4169 ], [ -80.88674, 35.41636 ], [ -80.88696, 35.41578 ], [ -80.887, 35.41523 ], [ -80.8871433, 35.4146133 ], [ -80.8872867, 35.4139967 ], [ -80.88743, 35.41338 ], [ -80.88764, 35.412595 ], [ -80.88785, 35.41181 ], [ -80.88785, 35.41162 ], [ -80.88794, 35.41148 ], [ -80.8880633, 35.4108833 ], [ -80.8881867, 35.4102867 ], [ -80.88831, 35.40969 ], [ -80.88848, 35.40932 ], [ -80.88861, 35.40911 ], [ -80.88884, 35.40887 ], [ -80.889285, 35.40842 ], [ -80.88973, 35.40797 ], [ -80.88991, 35.40782 ], [ -80.89019, 35.40768 ], [ -80.89058, 35.4074 ], [ -80.89093, 35.40708 ], [ -80.89126, 35.40689 ], [ -80.89135, 35.40685 ], [ -80.8917, 35.40681 ], [ -80.89197, 35.40681 ], [ -80.89206, 35.40679 ], [ -80.89211, 35.40669 ], [ -80.89203, 35.40643 ], [ -80.89179, 35.40602 ], [ -80.89144, 35.40569 ], [ -80.89139, 35.40567 ], [ -80.89059, 35.405655 ], [ -80.88979, 35.40564 ], [ -80.88915, 35.40563 ], [ -80.8891, 35.40566 ], [ -80.88902, 35.40577 ], [ -80.889, 35.40584 ], [ -80.88906, 35.40593 ], [ -80.88906, 35.40605 ], [ -80.88897, 35.40647 ], [ -80.8887, 35.40643 ], [ -80.88878, 35.40617 ], [ -80.88878, 35.40616 ], [ -80.88879, 35.40611 ], [ -80.88904, 35.40615 ], [ -80.88906, 35.40605 ], [ -80.88906, 35.40593 ], [ -80.889, 35.40584 ], [ -80.88902, 35.40577 ], [ -80.8891, 35.40566 ], [ -80.88915, 35.40563 ], [ -80.890165, 35.405645 ], [ -80.89118, 35.40566 ], [ -80.89119, 35.40515 ], [ -80.89049, 35.40511 ], [ -80.89013, 35.40504 ], [ -80.88937, 35.40503 ], [ -80.88924, 35.405 ], [ -80.88884, 35.40484 ], [ -80.8887, 35.40483 ], [ -80.88861, 35.40485 ], [ -80.88826, 35.40502 ], [ -80.88781, 35.40502 ], [ -80.88732, 35.40497 ], [ -80.88723, 35.40494 ], [ -80.88678, 35.404665 ], [ -80.88633, 35.40439 ], [ -80.88589, 35.40421 ], [ -80.88548, 35.40385 ], [ -80.88498, 35.40378 ], [ -80.88463, 35.40361 ], [ -80.88436, 35.40356 ], [ -80.88419, 35.40357 ], [ -80.88383, 35.40368 ], [ -80.88361, 35.40372 ], [ -80.88347, 35.40369 ], [ -80.88309, 35.40356 ], [ -80.88274, 35.4034 ], [ -80.88212, 35.40324 ], [ -80.88186, 35.40314 ], [ -80.88123, 35.40271 ], [ -80.88105, 35.40264 ], [ -80.88056, 35.40257 ], [ -80.88042, 35.4025 ], [ -80.88022, 35.40237 ], [ -80.88005, 35.40217 ], [ -80.87935, 35.40197 ], [ -80.87896, 35.40168 ], [ -80.87886, 35.40164 ], [ -80.87874, 35.40157 ], [ -80.87867, 35.40167 ], [ -80.87861, 35.40182 ], [ -80.87845, 35.40225 ], [ -80.87839, 35.40227 ], [ -80.87827, 35.40248 ], [ -80.87818, 35.40254 ], [ -80.87733, 35.40278 ], [ -80.87684, 35.40294 ], [ -80.87666, 35.40304 ], [ -80.87658, 35.40312 ], [ -80.87653, 35.40348 ], [ -80.87606, 35.403795 ], [ -80.87559, 35.40411 ], [ -80.87622, 35.40481 ], [ -80.87627, 35.40482 ], [ -80.87663, 35.405215 ], [ -80.87699, 35.40561 ], [ -80.87702, 35.40569 ], [ -80.87725, 35.40596 ], [ -80.87736, 35.40602 ], [ -80.87744, 35.40611 ], [ -80.87791, 35.40658 ], [ -80.87822, 35.40686 ], [ -80.87838, 35.40696 ], [ -80.87859, 35.40714 ], [ -80.87885, 35.40758 ], [ -80.87903, 35.40773 ], [ -80.87948, 35.408 ], [ -80.87956, 35.4081 ], [ -80.87963, 35.40824 ], [ -80.87967, 35.40848 ], [ -80.87975, 35.40936 ], [ -80.87984, 35.41002 ], [ -80.87979, 35.41036 ], [ -80.879635, 35.4108 ], [ -80.87948, 35.41124 ], [ -80.87948, 35.4115 ], [ -80.87957, 35.41181 ], [ -80.87961, 35.41193 ], [ -80.87975, 35.41212 ], [ -80.88006, 35.41238 ], [ -80.88042, 35.41255 ], [ -80.88138, 35.412795 ], [ -80.88234, 35.41304 ], [ -80.88256, 35.41314 ], [ -80.88275, 35.41328 ], [ -80.88297, 35.41352 ], [ -80.88306, 35.41378 ], [ -80.88306, 35.41404 ], [ -80.88302, 35.41425 ], [ -80.88297, 35.41438 ], [ -80.8826, 35.41486 ], [ -80.88223, 35.41534 ], [ -80.88224, 35.41533 ], [ -80.88212, 35.4155 ], [ -80.88203, 35.41565 ], [ -80.88168, 35.41647 ], [ -80.88144, 35.41678 ], [ -80.88105, 35.41708 ], [ -80.88087, 35.41725 ], [ -80.88065, 35.41751 ], [ -80.8804, 35.41803 ], [ -80.88015, 35.41855 ], [ -80.8801, 35.41867 ], [ -80.88011, 35.41882 ], [ -80.88021, 35.41963 ], [ -80.88016, 35.42011 ], [ -80.8802, 35.42025 ], [ -80.88029, 35.42041 ], [ -80.88049, 35.42071 ], [ -80.88073, 35.42088 ], [ -80.88108, 35.42106 ], [ -80.88208, 35.42139 ], [ -80.88237, 35.42156 ], [ -80.88257, 35.42172 ], [ -80.88279, 35.422 ], [ -80.88287, 35.42213 ], [ -80.88293, 35.42233 ], [ -80.88297, 35.42261 ], [ -80.88292, 35.42312 ], [ -80.88287, 35.42376 ], [ -80.88203, 35.42361 ], [ -80.8812325, 35.42339 ], [ -80.880435, 35.42317 ], [ -80.8796375, 35.42295 ], [ -80.87884, 35.42273 ], [ -80.87854, 35.42258 ], [ -80.87854, 35.42251 ], [ -80.8785, 35.42245 ], [ -80.87843, 35.4224 ], [ -80.87829, 35.42237 ], [ -80.87818, 35.42239 ], [ -80.87805, 35.4225 ], [ -80.87809, 35.42269 ], [ -80.87814, 35.42274 ], [ -80.8781, 35.42292 ], [ -80.8781, 35.42301 ], [ -80.8779, 35.423475 ], [ -80.8777, 35.42394 ], [ -80.8777, 35.42393 ], [ -80.8775, 35.42442 ], [ -80.87719, 35.4249 ], [ -80.87733, 35.42496 ], [ -80.87741, 35.42501 ], [ -80.87756, 35.42521 ], [ -80.8776, 35.42535 ], [ -80.87747, 35.42543 ], [ -80.87685, 35.42608 ], [ -80.87666, 35.4266 ], [ -80.87647, 35.42712 ], [ -80.87624, 35.42753 ], [ -80.87579, 35.42826 ], [ -80.87579, 35.42825 ], [ -80.87574, 35.42835 ], [ -80.87585, 35.4284 ], [ -80.87604, 35.42852 ], [ -80.87612, 35.42859 ], [ -80.8765, 35.42915 ], [ -80.87688, 35.42971 ], [ -80.87726, 35.43027 ], [ -80.877625, 35.43079 ], [ -80.87799, 35.43131 ], [ -80.878, 35.43138 ], [ -80.878, 35.43178 ], [ -80.87803, 35.43211 ], [ -80.87808, 35.43245 ], [ -80.87819, 35.43257 ], [ -80.87828, 35.43262 ], [ -80.87841, 35.43266 ], [ -80.87939, 35.43289 ], [ -80.87948, 35.4329 ], [ -80.87966, 35.43289 ], [ -80.87976, 35.43286 ], [ -80.87988, 35.43277 ], [ -80.88012, 35.43246 ], [ -80.88013, 35.43246 ], [ -80.88054, 35.431915 ], [ -80.88095, 35.43137 ], [ -80.88121, 35.4315 ], [ -80.88194, 35.43186 ], [ -80.88273, 35.43231 ], [ -80.88259, 35.43268 ], [ -80.88259, 35.43267 ], [ -80.88252, 35.43293 ], [ -80.88248, 35.43363 ], [ -80.88248, 35.434275 ], [ -80.88248, 35.43492 ], [ -80.88265, 35.43548 ], [ -80.88312, 35.43536 ], [ -80.88324, 35.43531 ], [ -80.88351, 35.4351 ], [ -80.8836, 35.43493 ], [ -80.88364, 35.43482 ], [ -80.88378, 35.43414 ], [ -80.88391, 35.43395 ], [ -80.88399, 35.43387 ], [ -80.88418, 35.43374 ], [ -80.88445, 35.43366 ], [ -80.885415, 35.43364 ], [ -80.88638, 35.43362 ], [ -80.88655, 35.43365 ], [ -80.88736, 35.433925 ], [ -80.88817, 35.4342 ], [ -80.88848, 35.43439 ], [ -80.88865, 35.43458 ], [ -80.88879, 35.43482 ], [ -80.88884, 35.43508 ], [ -80.88885, 35.43525 ], [ -80.888865, 35.43582 ], [ -80.88888, 35.43639 ], [ -80.88881, 35.43685 ], [ -80.88878, 35.43728 ], [ -80.88878, 35.43744 ], [ -80.8888, 35.43759 ], [ -80.88896, 35.43783 ], [ -80.88803, 35.43827 ], [ -80.88803, 35.43826 ], [ -80.8872675, 35.4386175 ], [ -80.886505, 35.438975 ], [ -80.8857425, 35.4393325 ], [ -80.88498, 35.43969 ], [ -80.88455, 35.43992 ], [ -80.88391, 35.44044 ], [ -80.88327, 35.44096 ], [ -80.8831, 35.44106 ], [ -80.88273, 35.44136 ], [ -80.88257, 35.44153 ], [ -80.88226, 35.44202 ], [ -80.88212, 35.44232 ], [ -80.88203, 35.44265 ], [ -80.88198, 35.44313 ], [ -80.88198, 35.44312 ], [ -80.88192, 35.44356 ], [ -80.88185, 35.44398 ], [ -80.88177, 35.44419 ], [ -80.88159, 35.44447 ], [ -80.88144, 35.44464 ], [ -80.88113, 35.4449 ], [ -80.8807, 35.44513 ], [ -80.88012, 35.44535 ], [ -80.87954, 35.44557 ], [ -80.87949, 35.44553 ], [ -80.87944, 35.44552 ], [ -80.87932, 35.44553 ], [ -80.8793, 35.44555 ], [ -80.87926, 35.44561 ], [ -80.87924, 35.44569 ], [ -80.87882, 35.44587 ], [ -80.87882, 35.44586 ], [ -80.87806, 35.44618 ], [ -80.87781, 35.445775 ], [ -80.87756, 35.44537 ], [ -80.87738, 35.44509 ], [ -80.87698, 35.44525 ], [ -80.87698, 35.44524 ], [ -80.87654, 35.44542 ], [ -80.87649, 35.44531 ], [ -80.87644, 35.44505 ], [ -80.87637, 35.44501 ], [ -80.87635, 35.44512 ], [ -80.87637, 35.44527 ], [ -80.87635, 35.44512 ], [ -80.87637, 35.44501 ], [ -80.87635, 35.44512 ], [ -80.87638, 35.44533 ], [ -80.87648, 35.44566 ], [ -80.87658, 35.44591 ], [ -80.87675, 35.44618 ], [ -80.87692, 35.44636 ], [ -80.87697, 35.4466 ], [ -80.87703, 35.44699 ], [ -80.87706, 35.4472 ], [ -80.87724, 35.44734 ], [ -80.87751, 35.44765 ], [ -80.87769, 35.44784 ], [ -80.87809, 35.44814 ], [ -80.87809, 35.44817 ], [ -80.87813, 35.44821 ], [ -80.87814, 35.44837 ], [ -80.87836, 35.44909 ], [ -80.87846, 35.44934 ], [ -80.8785, 35.4495 ], [ -80.87881, 35.45022 ], [ -80.87881, 35.45054 ], [ -80.87881, 35.45062 ], [ -80.87876, 35.45077 ], [ -80.87854, 35.45111 ], [ -80.8784, 35.45138 ], [ -80.87828, 35.45174 ], [ -80.87828, 35.45201 ], [ -80.87827, 35.45215 ], [ -80.87805, 35.45262 ], [ -80.878, 35.4528 ], [ -80.87797, 35.45297 ], [ -80.87797, 35.45296 ], [ -80.87796, 35.45318 ], [ -80.87809, 35.45396 ], [ -80.87808, 35.45461 ], [ -80.87809, 35.45492 ], [ -80.87824, 35.45538 ], [ -80.87839, 35.45584 ], [ -80.87841, 35.45595 ], [ -80.87841, 35.4561 ], [ -80.878145, 35.456625 ], [ -80.87788, 35.45715 ], [ -80.87787, 35.45729 ], [ -80.87787, 35.45772 ], [ -80.87764, 35.45813 ], [ -80.87756, 35.45852 ], [ -80.87733, 35.45918 ], [ -80.87725, 35.45945 ], [ -80.87728, 35.45968 ], [ -80.87707, 35.46039 ], [ -80.876955, 35.460845 ], [ -80.87684, 35.4613 ], [ -80.87681, 35.46203 ], [ -80.87681, 35.462 ], [ -80.87679, 35.46229 ], [ -80.87696, 35.46265 ], [ -80.87697, 35.4628 ], [ -80.87702, 35.46293 ], [ -80.87707, 35.46299 ], [ -80.87715, 35.46304 ], [ -80.87725, 35.46305 ], [ -80.87756, 35.46302 ], [ -80.87778, 35.46307 ], [ -80.87801, 35.46308 ], [ -80.878605, 35.46293 ], [ -80.8792, 35.46278 ], [ -80.87978, 35.462635 ], [ -80.88036, 35.46249 ], [ -80.88049, 35.46275 ], [ -80.879785, 35.462915 ], [ -80.87908, 35.46308 ], [ -80.87908, 35.46307 ], [ -80.87885, 35.46314 ], [ -80.87873, 35.46322 ], [ -80.87868, 35.4633 ], [ -80.87867, 35.46338 ], [ -80.87871, 35.46344 ], [ -80.87885, 35.4636 ], [ -80.87893, 35.4637 ], [ -80.87894, 35.4638 ], [ -80.8789, 35.46393 ], [ -80.87886, 35.46402 ], [ -80.87871, 35.46418 ], [ -80.87836, 35.46424 ], [ -80.87774, 35.46452 ], [ -80.87742, 35.46465 ], [ -80.87733, 35.46472 ], [ -80.87715, 35.46505 ], [ -80.87713, 35.46512 ], [ -80.87712, 35.46544 ], [ -80.87712, 35.46543 ], [ -80.87713, 35.4659 ], [ -80.87711, 35.46619 ], [ -80.87706, 35.4663 ], [ -80.87696, 35.4664 ], [ -80.87689, 35.46653 ], [ -80.87693, 35.46664 ], [ -80.87702, 35.46685 ], [ -80.87714, 35.46694 ], [ -80.87742, 35.4671 ], [ -80.87751, 35.46717 ], [ -80.87752, 35.46726 ], [ -80.87747, 35.46741 ], [ -80.8772, 35.46761 ], [ -80.87716, 35.46766 ], [ -80.87715, 35.46781 ], [ -80.8772, 35.46789 ], [ -80.87751, 35.46827 ], [ -80.87782, 35.46865 ], [ -80.87823, 35.46899 ], [ -80.87864, 35.46933 ], [ -80.87883, 35.46941 ], [ -80.87893, 35.46944 ], [ -80.87908, 35.46925 ], [ -80.8793, 35.46948 ], [ -80.87939, 35.46954 ], [ -80.8796, 35.46969 ], [ -80.87979, 35.46988 ], [ -80.880325, 35.470115 ], [ -80.88086, 35.47035 ], [ -80.88119, 35.47047 ], [ -80.88128, 35.47052 ], [ -80.88136, 35.47083 ], [ -80.88145, 35.47093 ], [ -80.88173, 35.47104 ], [ -80.88208, 35.47111 ], [ -80.88239, 35.47121 ], [ -80.88275, 35.47122 ], [ -80.8836, 35.47115 ], [ -80.88416, 35.47093 ], [ -80.88417, 35.47093 ], [ -80.88427, 35.47091 ], [ -80.88464, 35.47094 ], [ -80.88489, 35.4711 ], [ -80.88508, 35.4712 ], [ -80.88525, 35.47123 ], [ -80.88539, 35.47123 ], [ -80.88576, 35.47116 ], [ -80.88624, 35.47123 ], [ -80.88637, 35.47123 ], [ -80.88669, 35.47116 ], [ -80.88705, 35.47125 ], [ -80.88736, 35.47125 ], [ -80.88749, 35.47127 ], [ -80.88758, 35.47134 ], [ -80.88775, 35.47166 ], [ -80.88776, 35.4718 ], [ -80.88775, 35.47199 ], [ -80.88781, 35.47226 ], [ -80.88777, 35.47247 ], [ -80.88777, 35.47254 ], [ -80.88798, 35.47285 ], [ -80.88788, 35.47311 ], [ -80.8879, 35.47322 ], [ -80.88803, 35.47335 ], [ -80.8883, 35.47354 ], [ -80.88848, 35.4737 ], [ -80.88862, 35.47397 ], [ -80.88865, 35.47428 ], [ -80.8882, 35.47431 ], [ -80.88713, 35.47443 ], [ -80.886105, 35.474545 ], [ -80.88508, 35.47466 ], [ -80.884445, 35.474765 ], [ -80.88381, 35.47487 ], [ -80.88347, 35.47489 ], [ -80.88319, 35.47487 ], [ -80.88293, 35.47483 ], [ -80.88275, 35.47478 ], [ -80.88232, 35.47463 ], [ -80.88212, 35.4749 ], [ -80.8819, 35.47502 ], [ -80.88162, 35.47509 ], [ -80.88163, 35.47509 ], [ -80.8813, 35.47509 ], [ -80.8811, 35.47586 ], [ -80.8808, 35.47645 ], [ -80.88069, 35.47658 ], [ -80.88032, 35.47739 ], [ -80.8800533, 35.4780533 ], [ -80.8797867, 35.4787167 ], [ -80.87952, 35.47938 ], [ -80.87934, 35.47981 ], [ -80.87927, 35.47989 ], [ -80.87927, 35.47988 ], [ -80.87917, 35.48002 ], [ -80.87894, 35.48019 ], [ -80.87805, 35.4806 ], [ -80.87783, 35.48075 ], [ -80.87765, 35.48094 ], [ -80.87754, 35.48116 ], [ -80.87751, 35.48127 ], [ -80.87754, 35.48172 ], [ -80.87761, 35.48225 ], [ -80.87773, 35.48302 ], [ -80.87688, 35.4832 ], [ -80.87624, 35.48328 ], [ -80.87635, 35.48326 ], [ -80.87617, 35.4833 ], [ -80.87579, 35.48347 ], [ -80.8755, 35.48352 ], [ -80.87522, 35.48353 ], [ -80.87462, 35.483595 ], [ -80.87402, 35.48366 ], [ -80.87388, 35.48365 ], [ -80.87361, 35.48357 ], [ -80.87346, 35.48356 ], [ -80.87339, 35.48356 ], [ -80.87303, 35.48364 ], [ -80.87276, 35.48366 ], [ -80.87253, 35.48375 ], [ -80.871975, 35.48381 ], [ -80.87142, 35.48387 ], [ -80.87046, 35.483965 ], [ -80.8695, 35.48406 ], [ -80.86883, 35.48407 ], [ -80.8683, 35.48402 ], [ -80.86796, 35.48395 ], [ -80.866912, 35.483702 ], [ -80.865864, 35.483454 ], [ -80.864816, 35.483206 ], [ -80.863768, 35.482958 ], [ -80.86272, 35.48271 ], [ -80.86196, 35.48252 ], [ -80.8612, 35.48233 ], [ -80.86023, 35.48202 ], [ -80.85926, 35.48167 ], [ -80.85829, 35.48132 ], [ -80.85782, 35.48118 ], [ -80.85724, 35.481195 ], [ -80.85666, 35.48121 ], [ -80.85652, 35.48123 ], [ -80.85618, 35.48134 ], [ -80.85651, 35.48186 ], [ -80.85656, 35.4819 ], [ -80.85654, 35.48197 ], [ -80.85656, 35.48213 ], [ -80.85651, 35.48217 ], [ -80.8564, 35.48221 ], [ -80.85615, 35.48224 ], [ -80.85607, 35.48229 ], [ -80.85576, 35.48267 ], [ -80.85569, 35.48286 ], [ -80.85566, 35.48299 ], [ -80.85557, 35.48307 ], [ -80.85521, 35.48323 ], [ -80.85501, 35.48335 ], [ -80.85486, 35.48348 ], [ -80.85431, 35.48415 ], [ -80.85427, 35.48421 ], [ -80.85424, 35.48435 ], [ -80.85405, 35.48451 ], [ -80.85402, 35.48455 ], [ -80.85403, 35.48455 ], [ -80.85383, 35.48482 ], [ -80.85368, 35.48512 ], [ -80.85359, 35.48521 ], [ -80.8533, 35.48538 ], [ -80.85284, 35.48563 ], [ -80.85202, 35.4859833 ], [ -80.8512, 35.4863367 ], [ -80.85038, 35.48669 ], [ -80.85068, 35.48656 ], [ -80.85069, 35.48656 ], [ -80.85038, 35.48669 ], [ -80.85029, 35.4867 ], [ -80.85029, 35.48668 ], [ -80.84989, 35.48656 ], [ -80.8498, 35.48658 ], [ -80.84935, 35.48679 ], [ -80.84927, 35.48684 ], [ -80.84926, 35.48689 ], [ -80.84931, 35.48711 ], [ -80.84931, 35.48715 ], [ -80.84925, 35.4872 ], [ -80.84895, 35.48733 ], [ -80.84868, 35.48732 ], [ -80.84864, 35.48726 ], [ -80.848165, 35.48682 ], [ -80.84769, 35.48638 ], [ -80.84751, 35.48628 ], [ -80.84707, 35.48623 ], [ -80.84684, 35.48625 ], [ -80.84643, 35.48643 ], [ -80.84631, 35.48642 ], [ -80.84595, 35.48628 ], [ -80.84504, 35.48605 ], [ -80.84465, 35.48582 ], [ -80.84456, 35.48583 ], [ -80.84438, 35.4859 ], [ -80.84411, 35.48593 ], [ -80.84383, 35.48606 ], [ -80.8434, 35.48622 ], [ -80.84308, 35.48637 ], [ -80.84261, 35.48666 ], [ -80.84262, 35.48666 ], [ -80.84255, 35.4867 ], [ -80.8424, 35.48684 ], [ -80.84228, 35.48697 ], [ -80.84217, 35.48704 ], [ -80.84209, 35.48701 ], [ -80.8416, 35.48706 ], [ -80.84134, 35.48714 ], [ -80.84112, 35.48728 ], [ -80.8406533, 35.4877733 ], [ -80.8401867, 35.4882667 ], [ -80.83972, 35.48876 ], [ -80.83932, 35.48905 ], [ -80.838825, 35.489285 ], [ -80.83833, 35.48952 ], [ -80.83834, 35.48952 ], [ -80.8379, 35.48973 ], [ -80.83791, 35.48978 ], [ -80.83728, 35.49008 ], [ -80.83777, 35.49065 ], [ -80.83816, 35.49117 ], [ -80.8385433, 35.4918467 ], [ -80.8389267, 35.4925233 ], [ -80.83931, 35.4932 ], [ -80.83941, 35.4935 ], [ -80.83946, 35.49374 ], [ -80.839425, 35.494495 ], [ -80.83939, 35.49525 ], [ -80.83938, 35.49532 ], [ -80.83927, 35.49528 ], [ -80.83829, 35.49557 ], [ -80.83731, 35.49586 ], [ -80.83733, 35.49586 ], [ -80.83754, 35.4958 ], [ -80.836955, 35.495605 ], [ -80.83637, 35.49541 ], [ -80.83587, 35.49516 ], [ -80.83567, 35.49502 ], [ -80.83539, 35.49484 ], [ -80.83451, 35.49438 ], [ -80.83407, 35.49464 ], [ -80.83409, 35.49464 ], [ -80.8333, 35.49412 ], [ -80.83292, 35.49384 ], [ -80.83276, 35.49367 ], [ -80.8327, 35.49345 ], [ -80.83265, 35.49337 ], [ -80.83201, 35.49299 ], [ -80.83137, 35.49261 ], [ -80.83121, 35.49252 ], [ -80.83108, 35.49268 ], [ -80.830585, 35.493365 ], [ -80.83009, 35.49405 ], [ -80.82995, 35.49398 ], [ -80.82978, 35.4939 ], [ -80.82882, 35.493615 ], [ -80.82786, 35.49333 ], [ -80.827175, 35.49311 ], [ -80.82649, 35.49289 ], [ -80.82654, 35.49291 ], [ -80.8268, 35.49236 ], [ -80.8268, 35.49235 ], [ -80.82701, 35.49192 ], [ -80.82698, 35.49178 ] ] } }
]
}
